$$SOE
2461281.500000000, A.D. 2026-Aug-29 00:00:00.0000, 4.438624639645556E+08, -5.158579785640955E+08, -2.492428850597066E+07,
2461288.500000000, A.D. 2026-Sep-05 00:00:00.0000, 4.490560361320620E+08, -5.101246256049796E+08, -2.389073128601488E+07,
2461295.500000000, A.D. 2026-Sep-12 00:00:00.0000, 4.541803130513290E+08, -5.043125561136493E+08, -2.285348636067879E+07,
2461302.500000000, A.D. 2026-Sep-19 00:00:00.0000, 4.592342017165649E+08, -4.984223348284475E+08, -2.181269860520107E+07,
2461309.500000000, A.D. 2026-Sep-26 00:00:00.0000, 4.642166067313028E+08, -4.924545393839451E+08, -2.076851453639057E+07,
2461316.500000000, A.D. 2026-Oct-03 00:00:00.0000, 4.691264303832559E+08, -4.864097603272870E+08, -1.972108233085734E+07,
2461323.500000000, A.D. 2026-Oct-10 00:00:00.0000, 4.739625726377922E+08, -4.802886012327884E+08, -1.867055184412345E+07,
2461330.500000000, A.D. 2026-Oct-17 00:00:00.0000, 4.787239311020335E+08, -4.740916788959637E+08, -1.761707463371718E+07,
2461337.500000000, A.D. 2026-Oct-24 00:00:00.0000, 4.834094009841341E+08, -4.678196236298146E+08, -1.656080399022192E+07,
2461344.500000000, A.D. 2026-Oct-31 00:00:00.0000, 4.880178751465966E+08, -4.614730797301463E+08, -1.550189499065053E+07,
2461351.500000000, A.D. 2026-Nov-07 00:00:00.0000, 4.925482445928059E+08, -4.550527060357810E+08, -1.444050459901074E+07,
2461358.500000000, A.D. 2026-Nov-14 00:00:00.0000, 4.969993995880138E+08, -4.485591756962578E+08, -1.337679175973642E+07,
2461365.500000000, A.D. 2026-Nov-21 00:00:00.0000, 5.013702296034347E+08, -4.419931744654444E+08, -1.231091726181561E+07,
2461372.500000000, A.D. 2026-Nov-28 00:00:00.0000, 5.056596210853906E+08, -4.353554005293441E+08, -1.124304352761692E+07,
2461379.500000000, A.D. 2026-Dec-05 00:00:00.0000, 5.098664566689141E+08, -4.286465665241567E+08, -1.017333471174422E+07,
2461386.500000000, A.D. 2026-Dec-12 00:00:00.0000, 5.139896160010200E+08, -4.218674006333469E+08, -9.101956870509803E+06,
2461393.500000000, A.D. 2026-Dec-19 00:00:00.0000, 5.180279762868457E+08, -4.150186467573230E+08, -8.029078028123379E+06,
2461400.500000000, A.D. 2026-Dec-26 00:00:00.0000, 5.219804124165987E+08, -4.081010646238974E+08, -6.954868197227597E+06,
2461407.500000000, A.D. 2027-Jan-02 00:00:00.0000, 5.258457969492073E+08, -4.011154300305988E+08, -5.879499394487113E+06,
2461414.500000000, A.D. 2027-Jan-09 00:00:00.0000, 5.296230000693312E+08, -3.940625351988797E+08, -4.803145660159886E+06,
2461421.500000000, A.D. 2027-Jan-16 00:00:00.0000, 5.333108895523272E+08, -3.869431892316462E+08, -3.725983084075391E+06,
2461428.500000000, A.D. 2027-Jan-23 00:00:00.0000, 5.369083307820100E+08, -3.797582187139462E+08, -2.648189845436841E+06,
2461435.500000000, A.D. 2027-Jan-30 00:00:00.0000, 5.404141870075514E+08, -3.725084685046680E+08, -1.569946287594408E+06,
2461442.500000000, A.D. 2027-Feb-06 00:00:00.0000, 5.438273202629759E+08, -3.651948023791503E+08, -4.914350390321463E+05,
2461449.500000000, A.D. 2027-Feb-13 00:00:00.0000, 5.471465924880782E+08, -3.578181023030890E+08, 5.871589612455517E+05,
2461456.500000000, A.D. 2027-Feb-20 00:00:00.0000, 5.503708644862950E+08, -3.503792671291685E+08, 1.665648685984090E+06,
2461463.500000000, A.D. 2027-Feb-27 00:00:00.0000, 5.534989941146556E+08, -3.428792139302953E+08, 2.743845098769531E+06,
2461470.500000000, A.D. 2027-Mar-06 00:00:00.0000, 5.565298367234337E+08, -3.353188800465299E+08, 3.821556970043376E+06,
2461477.500000000, A.D. 2027-Mar-13 00:00:00.0000, 5.594622462455394E+08, -3.276992237960143E+08, 4.898590744145110E+06,
2461484.500000000, A.D. 2027-Mar-20 00:00:00.0000, 5.622950758067960E+08, -3.200212246845378E+08, 5.974750492642686E+06,
2461491.500000000, A.D. 2027-Mar-27 00:00:00.0000, 5.650271780596898E+08, -3.122858836626992E+08, 7.049837890480936E+06,
2461498.500000000, A.D. 2027-Apr-03 00:00:00.0000, 5.676574054440831E+08, -3.044942234784070E+08, 8.123652192394674E+06,
2461505.500000000, A.D. 2027-Apr-10 00:00:00.0000, 5.701846104366986E+08, -2.966472891016821E+08, 9.195990205849081E+06,
2461512.500000000, A.D. 2027-Apr-17 00:00:00.0000, 5.726076458119236E+08, -2.887461482361240E+08, 1.026664625733531E+07,
2461519.500000000, A.D. 2027-Apr-24 00:00:00.0000, 5.749253649934163E+08, -2.807918919792001E+08, 1.133541213970011E+07,
2461526.500000000, A.D. 2027-May-01 00:00:00.0000, 5.771366227961956E+08, -2.727856356032975E+08, 1.240207701531534E+07,
2461533.500000000, A.D. 2027-May-08 00:00:00.0000, 5.792402768667949E+08, -2.647285187085721E+08, 1.346642730808461E+07,
2461540.500000000, A.D. 2027-May-15 00:00:00.0000, 5.812351883253164E+08, -2.566217037936380E+08, 1.452824679959284E+07,
2461547.500000000, A.D. 2027-May-22 00:00:00.0000, 5.831202200463712E+08, -2.484663758355559E+08, 1.558731686115031E+07,
2461554.500000000, A.D. 2027-May-29 00:00:00.0000, 5.848942359352070E+08, -2.402637443470132E+08, 1.664341639403017E+07,
2461561.500000000, A.D. 2027-Jun-05 00:00:00.0000, 5.865561020845077E+08, -2.320150447782750E+08, 1.769632165282422E+07,
2461568.500000000, A.D. 2027-Jun-12 00:00:00.0000, 5.881046878054683E+08, -2.237215388317705E+08, 1.874580617156791E+07,
2461575.500000000, A.D. 2027-Jun-19 00:00:00.0000, 5.895388662031652E+08, -2.153845146242419E+08, 1.979164074687013E+07,
2461582.500000000, A.D. 2027-Jun-26 00:00:00.0000, 5.908575145764539E+08, -2.070052869576572E+08, 2.083359343137281E+07,
2461589.500000000, A.D. 2027-Jul-03 00:00:00.0000, 5.920595147752036E+08, -1.985851976903543E+08, 2.187142952642905E+07,
2461596.500000000, A.D. 2027-Jul-10 00:00:00.0000, 5.931437535523494E+08, -1.901256161993547E+08, 2.290491157168008E+07,
2461603.500000000, A.D. 2027-Jul-17 00:00:00.0000, 5.941091229477289E+08, -1.816279399723155E+08, 2.393379932537877E+07,
2461610.500000000, A.D. 2027-Jul-24 00:00:00.0000, 5.949545208606234E+08, -1.730935953914679E+08, 2.495784971631087E+07,
2461617.500000000, A.D. 2027-Jul-31 00:00:00.0000, 5.956788522228026E+08, -1.645240384733486E+08, 2.597681674911598E+07,
2461624.500000000, A.D. 2027-Aug-07 00:00:00.0000, 5.962810305719852E+08, -1.559207544116367E+08, 2.699045147583461E+07,
2461631.500000000, A.D. 2027-Aug-14 00:00:00.0000, 5.967599777258847E+08, -1.472852561757423E+08, 2.799850222436706E+07,
2461638.500000000, A.D. 2027-Aug-21 00:00:00.0000, 5.971146221760415E+08, -1.386190855291625E+08, 2.900071475241984E+07,
2461645.500000000, A.D. 2027-Aug-28 00:00:00.0000, 5.973438996326132E+08, -1.299238152638008E+08, 2.999683211060173E+07,
2461652.500000000, A.D. 2027-Sep-04 00:00:00.0000, 5.974467545393142E+08, -1.212010501468893E+08, 3.098659452746542E+07,
2461659.500000000, A.D. 2027-Sep-11 00:00:00.0000, 5.974221411639191E+08, -1.124524272408511E+08, 3.196973939038008E+07,
2461666.500000000, A.D. 2027-Sep-18 00:00:00.0000, 5.972690243982248E+08, -1.036796162452569E+08, 3.294600125679572E+07,
2461673.500000000, A.D. 2027-Sep-25 00:00:00.0000, 5.969863804969926E+08, -9.488431993724084E+07, 3.391511186844875E+07,
2461680.500000000, A.D. 2027-Oct-02 00:00:00.0000, 5.965731978316433E+08, -8.606827468134238E+07, 3.487680016376810E+07,
2461687.500000000, A.D. 2027-Oct-09 00:00:00.0000, 5.960284776820310E+08, -7.723325101168537E+07, 3.583079228597628E+07,
2461694.500000000, A.D. 2027-Oct-16 00:00:00.0000, 5.953512351304271E+08, -6.838105433979641E+07, 3.677681157656842E+07,
2461701.500000000, A.D. 2027-Oct-23 00:00:00.0000, 5.945405003184351E+08, -5.951352579221982E+07, 3.771457852984457E+07,
2461708.500000000, A.D. 2027-Oct-30 00:00:00.0000, 5.935953204421353E+08, -5.063254256589353E+07, 3.864381072399707E+07,
2461715.500000000, A.D. 2027-Nov-06 00:00:00.0000, 5.925147613229189E+08, -4.174001667107756E+07, 3.956422292779546E+07,
2461722.500000000, A.D. 2027-Nov-13 00:00:00.0000, 5.912979065702763E+08, -3.283789413640042E+07, 4.047552739561859E+07,
2461729.500000000, A.D. 2027-Nov-20 00:00:00.0000, 5.899438572394501E+08, -2.392815686085711E+07, 4.137743390629182E+07,
2461736.500000000, A.D. 2027-Nov-27 00:00:00.0000, 5.884517336016238E+08, -1.501282414677590E+07, 4.226964963978921E+07,
2461743.500000000, A.D. 2027-Dec-04 00:00:00.0000, 5.868206770035518E+08, -6.093952997919340E+06, 4.315187915235385E+07,
2461750.500000000, A.D. 2027-Dec-11 00:00:00.0000, 5.850498512667959E+08, 2.826361855075236E+06, 4.402382442210326E+07,
2461757.500000000, A.D. 2027-Dec-18 00:00:00.0000, 5.831384439020977E+08, 1.174598786449406E+07, 4.488518491253486E+07,
2461764.500000000, A.D. 2027-Dec-25 00:00:00.0000, 5.810856672911363E+08, 2.066275451014637E+07, 4.573565764012618E+07,
2461771.500000000, A.D. 2028-Jan-01 00:00:00.0000, 5.788907598770522E+08, 2.957445309522066E+07, 4.657493724370290E+07,
$$EOE